start=new Date('2022-07-20T00:00:00.000Z').valueOf();
sats=[{"MEAN_MOTION_DDOT":"0.0000000000000","LAUNCH_DATE":"2020-03-18","FILE":"3517796","ECCENTRICITY":"0.00013440","INCLINATION":"53.0558","APOAPSIS":"548.107","REV_AT_EPOCH":"12985","ARG_OF_PERICENTER":"89.1754","TLE_LINE1":"1 45360U 20019A   22200.87682787  .00005948  00000-0  41771-3 0  9998","OBJECT_ID":"2020-019A","SITE":"AFETR","CENTER_NAME":"EARTH","MEAN_ANOMALY":"270.9389","CLASSIFICATION_TYPE":"U","TLE_LINE2":"2 45360  53.0558 341.8975 0001344  89.1754 270.9389 15.06412092129852","OBJECT_NAME":"STARLINK-1279","GP_ID":"208468873","MEAN_MOTION":"15.06412092","ELEMENT_SET_NO":"999","MEAN_MOTION_DOT":"0.00005948","RCS_SIZE":"LARGE","EPOCH":"2022-07-19T21:02:37.927968","MEAN_ELEMENT_THEORY":"SGP4","BSTAR":"0.00041771000000","RA_OF_ASC_NODE":"341.8975","PERIAPSIS":"546.246","NORAD_CAT_ID":"45360","COUNTRY_CODE":"US","PERIOD":"95.591","SEMIMAJOR_AXIS":"6925.311","DECAY_DATE":null,"REF_FRAME":"TEME","OBJECT_TYPE":"PAYLOAD","TIME_SYSTEM":"UTC","EPHEMERIS_TYPE":"0"},{"ECCENTRICITY":"0.00013120","MEAN_MOTION_DDOT":"0.0000000000000","FILE":"3517796","LAUNCH_DATE":"2020-03-18","MEAN_ANOMALY":"273.9760","CENTER_NAME":"EARTH","CLASSIFICATION_TYPE":"U","TLE_LINE2":"2 45361  53.0565 351.9503 0001312  86.1379 273.9760 15.06406632129720","MEAN_MOTION":"15.06406632","GP_ID":"208469124","ELEMENT_SET_NO":"999","OBJECT_NAME":"STARLINK-1301","ARG_OF_PERICENTER":"86.1379","SITE":"AFETR","TLE_LINE1":"1 45361U 20019B   22200.86484253  .00002157  00000-0  16365-3 0  9996","OBJECT_ID":"2020-019B","APOAPSIS":"548.102","INCLINATION":"53.0565","REV_AT_EPOCH":"12972","BSTAR":"0.00016365000000","RA_OF_ASC_NODE":"351.9503","EPOCH":"2022-07-19T20:45:22.394592","MEAN_ELEMENT_THEORY":"SGP4","PERIAPSIS":"546.285","MEAN_MOTION_DOT":"0.00002157","RCS_SIZE":"LARGE","OBJECT_TYPE":"PAYLOAD","DECAY_DATE":null,"REF_FRAME":"TEME","TIME_SYSTEM":"UTC","EPHEMERIS_TYPE":"0","PERIOD":"95.592","SEMIMAJOR_AXIS":"6925.328","NORAD_CAT_ID":"45361","COUNTRY_CODE":"US"},{"LAUNCH_DATE":"2020-03-18","FILE":"3517796","MEAN_MOTION_DDOT":"0.0000000000000","ECCENTRICITY":"0.00014370","REV_AT_EPOCH":"12944","INCLINATION":"53.0566","APOAPSIS":"548.215","TLE_LINE1":"1 45362U 20019C   22200.91092843  .00001632  00000-0  12846-3 0  9990","OBJECT_ID":"2020-019C","SITE":"AFETR","ARG_OF_PERICENTER":"83.0798","OBJECT_NAME":"STARLINK-1306","GP_ID":"208467872","MEAN_MOTION":"15.06397918","ELEMENT_SET_NO":"999","TLE_LINE2":"2 45362  53.0566  11.7405 0001437  83.0798 277.0354 15.06397918129442","CENTER_NAME":"EARTH","CLASSIFICATION_TYPE":"U","MEAN_ANOMALY":"277.0354","RCS_SIZE":"LARGE","MEAN_MOTION_DOT":"0.00001632","PERIAPSIS":"546.225","MEAN_ELEMENT_THEORY":"SGP4","EPOCH":"2022-07-19T21:51:44.216352","RA_OF_ASC_NODE":"11.7405","BSTAR":"0.00012846000000","COUNTRY_CODE":"US","NORAD_CAT_ID":"45362","SEMIMAJOR_AXIS":"6925.355","PERIOD":"95.592","EPHEMERIS_TYPE":"0","TIME_SYSTEM":"UTC","REF_FRAME":"TEME","DECAY_DATE":null,"OBJECT_TYPE":"PAYLOAD"},{"RCS_SIZE":"LARGE","MEAN_MOTION_DOT":"0.00004628","PERIAPSIS":"546.187","EPOCH":"2022-07-19T20:57:19.890432","MEAN_ELEMENT_THEORY":"SGP4","BSTAR":"0.00032933000000","RA_OF_ASC_NODE":"341.9203","NORAD_CAT_ID":"45364","COUNTRY_CODE":"US","PERIOD":"95.592","SEMIMAJOR_AXIS":"6925.336","TIME_SYSTEM":"UTC","EPHEMERIS_TYPE":"0","DECAY_DATE":null,"REF_FRAME":"TEME","OBJECT_TYPE":"PAYLOAD","LAUNCH_DATE":"2020-03-18","FILE":"3517796","MEAN_MOTION_DDOT":"0.0000000000000","ECCENTRICITY":"0.00014650","APOAPSIS":"548.216","INCLINATION":"53.0560","REV_AT_EPOCH":"12985","ARG_OF_PERICENTER":"77.1012","TLE_LINE1":"1 45364U 20019E   22200.87314688  .00004628  00000-0  32933-3 0  9998","SITE":"AFETR","OBJECT_ID":"2020-019E","OBJECT_NAME":"STARLINK-1313","ELEMENT_SET_NO":"999","GP_ID":"208468122","MEAN_MOTION":"15.06404068","MEAN_ANOMALY":"283.0140","CENTER_NAME":"EARTH","CLASSIFICATION_TYPE":"U","TLE_LINE2":"2 45364  53.0560 341.9203 0001465  77.1012 283.0140 15.06404068129856"},{"MEAN_MOTION_DDOT":"0.0000000000000","LAUNCH_DATE":"2020-03-18","FILE":"3517796","ECCENTRICITY":"0.00013940","APOAPSIS":"550.630","INCLINATION":"53.0012","REV_AT_EPOCH":"12965","ARG_OF_PERICENTER":"97.4562","TLE_LINE1":"1 45365U 20019F   22200.76512286  .00010469  00000-0  73620-3 0  9999","OBJECT_ID":"2020-019F","SITE":"AFETR","MEAN_ANOMALY":"262.6584","CLASSIFICATION_TYPE":"U","CENTER_NAME":"EARTH","TLE_LINE2":"2 45365  53.0012 352.4076 0001394  97.4562 262.6584 15.05600677129656","OBJECT_NAME":"STARLINK-1317","GP_ID":"208469374","MEAN_MOTION":"15.05600677","ELEMENT_SET_NO":"999","MEAN_MOTION_DOT":"0.00010469","RCS_SIZE":"LARGE","EPOCH":"2022-07-19T18:21:46.615104","MEAN_ELEMENT_THEORY":"SGP4","BSTAR":"0.00073620000000","RA_OF_ASC_NODE":"352.4076","PERIAPSIS":"548.699","NORAD_CAT_ID":"45365","COUNTRY_CODE":"US","PERIOD":"95.643","SEMIMAJOR_AXIS":"6927.799","DECAY_DATE":null,"REF_FRAME":"TEME","OBJECT_TYPE":"PAYLOAD","TIME_SYSTEM":"UTC","EPHEMERIS_TYPE":"0"},{"MEAN_MOTION_DDOT":"0.0000000000000","LAUNCH_DATE":"2020-03-18","FILE":"3517796","ECCENTRICITY":"0.00015570","REV_AT_EPOCH":"12943","APOAPSIS":"548.312","INCLINATION":"53.0568","TLE_LINE1":"1 45366U 20019G   22200.76349629  .00000404  00000-0  46057-4 0  9992","OBJECT_ID":"2020-019G","SITE":"AFETR","ARG_OF_PERICENTER":"75.9666","TLE_LINE2":"2 45366  53.0568  12.3935 0001557  75.9666 284.1496 15.06393336129435","CLASSIFICATION_TYPE":"U","MEAN_ANOMALY":"284.1496","CENTER_NAME":"EARTH","OBJECT_NAME":"STARLINK-1262","MEAN_MOTION":"15.06393336","GP_ID":"208469624","ELEMENT_SET_NO":"999","RCS_SIZE":"LARGE","MEAN_MOTION_DOT":"0.00000404","MEAN_ELEMENT_THEORY":"SGP4","EPOCH":"2022-07-19T18:19:26.079456","RA_OF_ASC_NODE":"12.3935","BSTAR":"0.00004605700000","PERIAPSIS":"546.156","COUNTRY_CODE":"US","NORAD_CAT_ID":"45366","SEMIMAJOR_AXIS":"6925.369","PERIOD":"95.593","REF_FRAME":"TEME","DECAY_DATE":null,"OBJECT_TYPE":"PAYLOAD","EPHEMERIS_TYPE":"0","TIME_SYSTEM":"UTC"},{"CENTER_NAME":"EARTH","MEAN_ANOMALY":"231.8128","CLASSIFICATION_TYPE":"U","TLE_LINE2":"2 45367  53.0532  11.6951 0001380 128.2985 231.8128 15.06403030129453","ELEMENT_SET_NO":"999","GP_ID":"208468373","MEAN_MOTION":"15.06403030","OBJECT_NAME":"STARLINK-1273","ARG_OF_PERICENTER":"128.2985","TLE_LINE1":"1 45367U 20019H   22200.91829710  .00005238  00000-0  37027-3 0  9990","SITE":"AFETR","OBJECT_ID":"2020-019H","INCLINATION":"53.0532","APOAPSIS":"548.160","REV_AT_EPOCH":"12945","ECCENTRICITY":"0.00013800","MEAN_MOTION_DDOT":"0.0000000000000","FILE":"3517796","LAUNCH_DATE":"2020-03-18","OBJECT_TYPE":"PAYLOAD","DECAY_DATE":null,"REF_FRAME":"TEME","TIME_SYSTEM":"UTC","EPHEMERIS_TYPE":"0","PERIOD":"95.592","SEMIMAJOR_AXIS":"6925.339","NORAD_CAT_ID":"45367","COUNTRY_CODE":"US","RA_OF_ASC_NODE":"11.6951","BSTAR":"0.00037027000000","EPOCH":"2022-07-19T22:02:20.869440","MEAN_ELEMENT_THEORY":"SGP4","PERIAPSIS":"546.249","RCS_SIZE":"LARGE","MEAN_MOTION_DOT":"0.00005238"},{"APOAPSIS":"548.306","INCLINATION":"53.0582","REV_AT_EPOCH":"12943","ARG_OF_PERICENTER":"94.0543","TLE_LINE1":"1 45368U 20019J   22200.75611946  .00002275  00000-0  17157-3 0  9993","SITE":"AFETR","OBJECT_ID":"2020-019J","OBJECT_NAME":"STARLINK-1276","MEAN_MOTION":"15.06398974","GP_ID":"208468623","ELEMENT_SET_NO":"999","CENTER_NAME":"EARTH","CLASSIFICATION_TYPE":"U","MEAN_ANOMALY":"266.0626","TLE_LINE2":"2 45368  53.0582  12.4411 0001573  94.0543 266.0626 15.06398974129434","LAUNCH_DATE":"2020-03-18","FILE":"3517796","MEAN_MOTION_DDOT":"0.0000000000000","ECCENTRICITY":"0.00015730","NORAD_CAT_ID":"45368","COUNTRY_CODE":"US","PERIOD":"95.592","SEMIMAJOR_AXIS":"6925.352","TIME_SYSTEM":"UTC","EPHEMERIS_TYPE":"0","DECAY_DATE":null,"REF_FRAME":"TEME","OBJECT_TYPE":"PAYLOAD","RCS_SIZE":"LARGE","MEAN_MOTION_DOT":"0.00002275","PERIAPSIS":"546.127","EPOCH":"2022-07-19T18:08:48.721344","MEAN_ELEMENT_THEORY":"SGP4","BSTAR":"0.00017157000000","RA_OF_ASC_NODE":"12.4411"},{"ECCENTRICITY":"0.00015740","FILE":"3517796","LAUNCH_DATE":"2020-03-18","MEAN_MOTION_DDOT":"0.0000000000000","ELEMENT_SET_NO":"999","GP_ID":"208468874","MEAN_MOTION":"15.06395137","OBJECT_NAME":"STARLINK-1277","MEAN_ANOMALY":"275.9062","CLASSIFICATION_TYPE":"U","CENTER_NAME":"EARTH","TLE_LINE2":"2 45369  53.0556  12.1305 0001574  84.2107 275.9062 15.06395137129445","ARG_OF_PERICENTER":"84.2107","OBJECT_ID":"2020-019K","TLE_LINE1":"1 45369U 20019K   22200.82152349  .00000642  00000-0  62024-4 0  9999","SITE":"AFETR","INCLINATION":"53.0556","APOAPSIS":"548.319","REV_AT_EPOCH":"12944","PERIAPSIS":"546.138","BSTAR":"0.00006202400000","RA_OF_ASC_NODE":"12.1305","EPOCH":"2022-07-19T19:42:59.629536","MEAN_ELEMENT_THEORY":"SGP4","MEAN_MOTION_DOT":"0.00000642","RCS_SIZE":"LARGE","TIME_SYSTEM":"UTC","EPHEMERIS_TYPE":"0","OBJECT_TYPE":"PAYLOAD","DECAY_DATE":null,"REF_FRAME":"TEME","PERIOD":"95.592","SEMIMAJOR_AXIS":"6925.363","NORAD_CAT_ID":"45369","COUNTRY_CODE":"US"},{"REF_FRAME":"TEME","DECAY_DATE":null,"OBJECT_TYPE":"PAYLOAD","EPHEMERIS_TYPE":"0","TIME_SYSTEM":"UTC","COUNTRY_CODE":"US","NORAD_CAT_ID":"45370","SEMIMAJOR_AXIS":"6925.371","PERIOD":"95.593","MEAN_ELEMENT_THEORY":"SGP4","EPOCH":"2022-07-19T21:03:58.553856","BSTAR":"0.00008879100000","RA_OF_ASC_NODE":"11.8971","PERIAPSIS":"546.258","RCS_SIZE":"LARGE","MEAN_MOTION_DOT":"0.00001041","TLE_LINE2":"2 45370  53.0563  11.8971 0001413  71.0759 289.0383 15.06392613129458","MEAN_ANOMALY":"289.0383","CENTER_NAME":"EARTH","CLASSIFICATION_TYPE":"U","OBJECT_NAME":"STARLINK-1281","GP_ID":"208469125","ELEMENT_SET_NO":"999","MEAN_MOTION":"15.06392613","REV_AT_EPOCH":"12945","APOAPSIS":"548.215","INCLINATION":"53.0563","TLE_LINE1":"1 45370U 20019L   22200.87776104  .00001041  00000-0  88791-4 0  9990","OBJECT_ID":"2020-019L","SITE":"AFETR","ARG_OF_PERICENTER":"71.0759","ECCENTRICITY":"0.00014130","MEAN_MOTION_DDOT":"0.0000000000000","LAUNCH_DATE":"2020-03-18","FILE":"3517796"}];
